KUIPER-00053            
1 64513U 25134P   25202.68598608  .00017243  00000+0  48877-3 0  9998
2 64513  51.8764 194.6943 0001872 184.5437 175.5532 15.36341219  5589
KUIPER-00054            
1 64514U 25134Q   25202.36440897  .00014351  00000+0  41088-3 0  9994
2 64514  51.8748 196.2908 0002592 186.0549 174.0407 15.36178072  5537
KUIPER-00055            
1 64515U 25134R   25202.67793876  .00030625  00000+0  84582-3 0  9995
2 64515  51.8757 194.6438 0000920  91.2883 268.8209 15.36797284  5588
KUIPER-00056            
1 64516U 25134S   25202.36821833  .00021070  00000+0  60304-3 0  9997
2 64516  51.8737 196.3141 0002999 195.6605 164.4288 15.35897129  5537
KUIPER-00057            
1 64517U 25134T   25202.38299778  .00022716  00000+0  66677-3 0  9994
2 64517  51.8703 196.4027 0006372 207.3726 152.6925 15.35043418  5530
KUIPER-00058            
1 64518U 25134U   25202.96030143  .00018795  00000+0  54463-3 0  9990
2 64518  51.8716 193.5256 0004627 202.4195 157.6589 15.35581526  5622
KUIPER-00059            
1 64519U 25134V   25202.87457584 -.00036889  00000+0 -10077-2 0  9991
2 64519  51.8757 193.7085 0002458 155.5642 204.5461 15.36692371  5617
KUIPER-00060            
1 64520U 25134W   25202.68367582  .00015123  00000+0  42760-3 0  9991
2 64520  51.8760 194.6798 0002150 151.6721 208.4382 15.36524044  5579
